{"type": "FeatureCollection", "features": [{"type": "Feature", "properties": {"norad_id": 66313, "name": "YAOGAN-46", "group": "last-30-days", "lat": -2.5247169237656646, "lon": -75.0032464876451, "alt_km": 7375.379313864748, "timestamp": "2025-12-03T19:33:05.754390+00:00", "meta": {"OBJECT_NAME": "YAOGAN-46", "OBJECT_ID": "2025-250A", "EPOCH": "2025-11-23T01:44:02.775840", "MEAN_MOTION": 5.35115916, "ECCENTRICITY": 0.00492374, "INCLINATION": 20.0335, "RA_OF_ASC_NODE": 104.8243, "ARG_OF_PERICENTER": 135.6954, "MEAN_ANOMALY": 224.7061, "EPHEMERIS_TYPE": 0, "CLASSIFICATION_TYPE": "U", "NORAD_CAT_ID": 66313, "ELEMENT_SET_NO": 999, "REV_AT_EPOCH": 114, "BSTAR": 0, "MEAN_MOTION_DOT": -7e-08, "MEAN_MOTION_DDOT": 0}, "tle": {"line1": "1 66313U 25250A   25327.07225435 -.00000007  00000+0  00000+0 0  9996", "line2": "2 66313  20.0335 104.8243 0049237 135.6954 224.7061  5.35115916  1148"}}, "geometry": {"type": "Point", "coordinates": [-75.0032464876451, -2.5247169237656646]}}, {"type": "Feature", "properties": {"norad_id": 66315, "name": "SENTINEL-1D", "group": "last-30-days", "lat": 22.47416430700415, "lon": -20.452561265662176, "alt_km": 694.3147178194176, "timestamp": "2025-12-03T19:33:05.754442+00:00", "meta": {"OBJECT_NAME": "SENTINEL-1D", "OBJECT_ID": "2025-251A", "EPOCH": "2025-12-03T11:13:23.701152", "MEAN_MOTION": 14.59910948, "ECCENTRICITY": 0.0002643, "INCLINATION": 98.1924, "RA_OF_ASC_NODE": 342.6213, "ARG_OF_PERICENTER": 153.1684, "MEAN_ANOMALY": 206.9653, "EPHEMERIS_TYPE": 0, "CLASSIFICATION_TYPE": "U", "NORAD_CAT_ID": 66315, "ELEMENT_SET_NO": 999, "REV_AT_EPOCH": 418, "BSTAR": 8.0504e-05, "MEAN_MOTION_DOT": 3.39e-06, "MEAN_MOTION_DDOT": 0}, "tle": {"line1": "1 66315U 25251A   25337.46763543  .00000339  00000+0  80504-4 0  9999", "line2": "2 66315  98.1924 342.6213 0002643 153.1684 206.9653 14.59910948  4184"}}, "geometry": {"type": "Point", "coordinates": [-20.452561265662176, 22.47416430700415]}}, {"type": "Feature", "properties": {"norad_id": 66316, "name": "QPS-SAR-14 (YACHIHOKO-I)", "group": "last-30-days", "lat": 41.44551237498387, "lon": -156.78927882854217, "alt_km": 563.1006558512854, "timestamp": "2025-12-03T19:33:05.754459+00:00", "meta": {"OBJECT_NAME": "QPS-SAR-14 (YACHIHOKO-I)", "OBJECT_ID": "2025-252A", "EPOCH": "2025-12-03T11:11:07.713600", "MEAN_MOTION": 14.97541562, "ECCENTRICITY": 0.0006838, "INCLINATION": 42.0031, "RA_OF_ASC_NODE": 126.2285, "ARG_OF_PERICENTER": 87.0305, "MEAN_ANOMALY": 273.1302, "EPHEMERIS_TYPE": 0, "CLASSIFICATION_TYPE": "U", "NORAD_CAT_ID": 66316, "ELEMENT_SET_NO": 999, "REV_AT_EPOCH": 414, "BSTAR": 0.00071031, "MEAN_MOTION_DOT": 8.256e-05, "MEAN_MOTION_DDOT": 0}, "tle": {"line1": "1 66316U 25252A   25337.46606150  .00008256  00000+0  71031-3 0  9991", "line2": "2 66316  42.0031 126.2285 0006838  87.0305 273.1302 14.97541562  4149"}}, "geometry": {"type": "Point", "coordinates": [-156.78927882854217, 41.44551237498387]}}, {"type": "Feature", "properties": {"norad_id": 66317, "name": "ELECTRON R/B", "group": "last-30-days", "lat": 24.834850751385066, "lon": 135.85720278791106, "alt_km": 194.62549433468575, "timestamp": "2025-12-03T19:33:05.754473+00:00", "meta": {"OBJECT_NAME": "ELECTRON R/B", "OBJECT_ID": "2025-252B", "EPOCH": "2025-12-03T14:55:45.455232", "MEAN_MOTION": 16.1047205, "ECCENTRICITY": 0.0083291, "INCLINATION": 41.9861, "RA_OF_ASC_NODE": 106.1368, "ARG_OF_PERICENTER": 72.6902, "MEAN_ANOMALY": 288.3055, "EPHEMERIS_TYPE": 0, "CLASSIFICATION_TYPE": "U", "NORAD_CAT_ID": 66317, "ELEMENT_SET_NO": 999, "REV_AT_EPOCH": 438, "BSTAR": 0.0017078, "MEAN_MOTION_DOT": 0.03071981, "MEAN_MOTION_DDOT": 8.1703e-06}, "tle": {"line1": "1 66317U 25252B   25337.62205388  .03071981  81703-5  17078-2 0  9991", "line2": "2 66317  41.9861 106.1368 0083291  72.6902 288.3055 16.10472050  4380"}}, "geometry": {"type": "Point", "coordinates": [135.85720278791106, 24.834850751385066]}}, {"type": "Feature", "properties": {"norad_id": 66319, "name": "STARLINK-35442", "group": "last-30-days", "lat": -14.52416055246202, "lon": 21.169486171136214, "alt_km": 445.16139619736714, "timestamp": "2025-12-03T19:33:05.754485+00:00", "meta": {"OBJECT_NAME": "STARLINK-35442", "OBJECT_ID": "2025-253A", "EPOCH": "2025-12-03T12:00:02.998944", "MEAN_MOTION": 15.40664245, "ECCENTRICITY": 0.0001055, "INCLINATION": 43.0009, "RA_OF_ASC_NODE": 39.124, "ARG_OF_PERICENTER": 268.8782, "MEAN_ANOMALY": 122.5263, "EPHEMERIS_TYPE": 0, "CLASSIFICATION_TYPE": "U", "NORAD_CAT_ID": 66319, "ELEMENT_SET_NO": 999, "REV_AT_EPOCH": 554, "BSTAR": 0.0020114, "MEAN_MOTION_DOT": 0.00084554, "MEAN_MOTION_DDOT": 0}, "tle": {"line1": "1 66319U 25253A   25337.50003471  .00084554  00000+0  20114-2 0  9997", "line2": "2 66319  43.0009  39.1240 0001055 268.8782 122.5263 15.40664245  5546"}}, "geometry": {"type": "Point", "coordinates": [21.169486171136214, -14.52416055246202]}}, {"type": "Feature", "properties": {"norad_id": 66320, "name": "STARLINK-34616", "group": "last-30-days", "lat": 30.707393595313594, "lon": 177.3326251015783, "alt_km": 409.8109748881325, "timestamp": "2025-12-03T19:33:05.754520+00:00", "meta": {"OBJECT_NAME": "STARLINK-34616", "OBJECT_ID": "2025-253B", "EPOCH": "2025-12-03T11:15:28.442880", "MEAN_MOTION": 15.50616353, "ECCENTRICITY": 0.0003705, "INCLINATION": 42.9968, "RA_OF_ASC_NODE": 38.956, "ARG_OF_PERICENTER": 219.5351, "MEAN_ANOMALY": 140.524, "EPHEMERIS_TYPE": 0, "CLASSIFICATION_TYPE": "U", "NORAD_CAT_ID": 66320, "ELEMENT_SET_NO": 999, "REV_AT_EPOCH": 557, "BSTAR": 0.0021204, "MEAN_MOTION_DOT": 0.00126267, "MEAN_MOTION_DDOT": 0}, "tle": {"line1": "1 66320U 25253B   25337.46907920  .00126267  00000+0  21204-2 0  9995", "line2": "2 66320  42.9968  38.9560 0003705 219.5351 140.5240 15.50616353  5577"}}, "geometry": {"type": "Point", "coordinates": [177.3326251015783, 30.707393595313594]}}, {"type": "Feature", "properties": {"norad_id": 66321, "name": "STARLINK-34615", "group": "last-30-days", "lat": 42.841330259097155, "lon": 131.7833684453023, "alt_km": 397.3263727443655, "timestamp": "2025-12-03T19:33:05.754534+00:00", "meta": {"OBJECT_NAME": "STARLINK-34615", "OBJECT_ID": "2025-253C", "EPOCH": "2025-12-03T12:00:02.998944", "MEAN_MOTION": 15.56313072, "ECCENTRICITY": 0.0001086, "INCLINATION": 43.0003, "RA_OF_ASC_NODE": 38.0016, "ARG_OF_PERICENTER": 288.0579, "MEAN_ANOMALY": 202.1812, "EPHEMERIS_TYPE": 0, "CLASSIFICATION_TYPE": "U", "NORAD_CAT_ID": 66321, "ELEMENT_SET_NO": 999, "REV_AT_EPOCH": 549, "BSTAR": -0.037468, "MEAN_MOTION_DOT": -0.02370563, "MEAN_MOTION_DDOT": 0}, "tle": {"line1": "1 66321U 25253C   25337.50003471 -.02370563  00000+0 -37468-1 0  9991", "line2": "2 66321  43.0003  38.0016 0001086 288.0579 202.1812 15.56313072  5499"}}, "geometry": {"type": "Point", "coordinates": [131.7833684453023, 42.841330259097155]}}, {"type": "Feature", "properties": {"norad_id": 66322, "name": "STARLINK-35292", "group": "last-30-days", "lat": 10.715162240572347, "lon": 48.93268441274081, "alt_km": 442.78982572684345, "timestamp": "2025-12-03T19:33:05.754545+00:00", "meta": {"OBJECT_NAME": "STARLINK-35292", "OBJECT_ID": "2025-253D", "EPOCH": "2025-12-03T08:00:01.999872", "MEAN_MOTION": 15.40741255, "ECCENTRICITY": 0.0001089, "INCLINATION": 43.0008, "RA_OF_ASC_NODE": 39.9907, "ARG_OF_PERICENTER": 281.0636, "MEAN_ANOMALY": 302.2538, "EPHEMERIS_TYPE": 0, "CLASSIFICATION_TYPE": "U", "NORAD_CAT_ID": 66322, "ELEMENT_SET_NO": 999, "REV_AT_EPOCH": 541, "BSTAR": -0.0049108334, "MEAN_MOTION_DOT": -0.00200416, "MEAN_MOTION_DDOT": 0}, "tle": {"line1": "1 66322U 25253D   25337.33335648 -.00200416  00000+0 -49108-2 0  9999", "line2": "2 66322  43.0008  39.9907 0001089 281.0636 302.2538 15.40741255  5414"}}, "geometry": {"type": "Point", "coordinates": [48.93268441274081, 10.715162240572347]}}, {"type": "Feature", "properties": {"norad_id": 66323, "name": "STARLINK-35309", "group": "last-30-days", "lat": 21.739543418267985, "lon": -168.43878314621, "alt_km": 411.61840291193676, "timestamp": "2025-12-03T19:33:05.754560+00:00", "meta": {"OBJECT_NAME": "STARLINK-35309", "OBJECT_ID": "2025-253E", "EPOCH": "2025-12-03T11:11:28.271616", "MEAN_MOTION": 15.50628793, "ECCENTRICITY": 0.0001247, "INCLINATION": 42.9992, "RA_OF_ASC_NODE": 38.9354, "ARG_OF_PERICENTER": 262.09, "MEAN_ANOMALY": 97.9819, "EPHEMERIS_TYPE": 0, "CLASSIFICATION_TYPE": "U", "NORAD_CAT_ID": 66323, "ELEMENT_SET_NO": 999, "REV_AT_EPOCH": 549, "BSTAR": 0.0018357, "MEAN_MOTION_DOT": 0.00109054, "MEAN_MOTION_DDOT": 0}, "tle": {"line1": "1 66323U 25253E   25337.46629944  .00109054  00000+0  18357-2 0  9995", "line2": "2 66323  42.9992  38.9354 0001247 262.0900  97.9819 15.50628793  5499"}}, "geometry": {"type": "Point", "coordinates": [-168.43878314621, 21.739543418267985]}}, {"type": "Feature", "properties": {"norad_id": 66324, "name": "STARLINK-35506", "group": "last-30-days", "lat": 25.945592417356288, "lon": -174.56358256013192, "alt_km": 410.6482947344466, "timestamp": "2025-12-03T19:33:05.754571+00:00", "meta": {"OBJECT_NAME": "STARLINK-35506", "OBJECT_ID": "2025-253F", "EPOCH": "2025-12-02T21:18:38.393568", "MEAN_MOTION": 15.50722844, "ECCENTRICITY": 0.00011072, "INCLINATION": 42.9991, "RA_OF_ASC_NODE": 42.3374, "ARG_OF_PERICENTER": 339.0363, "MEAN_ANOMALY": 21.0451, "EPHEMERIS_TYPE": 0, "CLASSIFICATION_TYPE": "U", "NORAD_CAT_ID": 66324, "ELEMENT_SET_NO": 999, "REV_AT_EPOCH": 540, "BSTAR": 0.0016172001, "MEAN_MOTION_DOT": 0.00096197, "MEAN_MOTION_DDOT": 0}, "tle": {"line1": "1 66324U 25253F   25336.88794437  .00096197  00000+0  16172-2 0  9997", "line2": "2 66324  42.9991  42.3374 0001107 339.0363  21.0451 15.50722844  5406"}}, "geometry": {"type": "Point", "coordinates": [-174.56358256013192, 25.945592417356288]}}]}